{
  "norad_id": 60043,
  "name": "STARLINK-11086 [DTC]",
  "history": [
    {
      "epoch": "2026-03-28T11:49:46.882272Z",
      "apogee_km": 360.09107618153394,
      "perigee_km": 359.3782093617283,
      "latitude_deg": 1.4690152187202433e-06,
      "longitude_deg": 170.2621944413774,
      "height_km": 360.6961230425346,
      "semi_major_axis_km": 6737.871642771631,
      "eccentricity": 5.29e-05,
      "inclination_deg": 53.1607,
      "raan_deg": 173.6201,
      "arg_perigee_deg": 97.5765,
      "mean_anomaly_deg": 262.5313,
      "mean_motion_rev_day": 15.69707242
    }
  ]
}